NORAD_CAT_ID,OBJECT_NAME,OBJECT_TYPE,EPOCH,MEAN_MOTION,ECCENTRICITY,INCLINATION,RA_OF_ASC_NODE,ARG_OF_PERICENTER,MEAN_ANOMALY,BSTAR,MEAN_MOTION_DOT,MEAN_MOTION_DDOT,TLE_LINE0,TLE_LINE1,TLE_LINE2,SEMIMAJOR_AXIS,PERIOD,APOGEE,PERIGEE,DECAYED
53598.0,STARLINK-4676,PAYLOAD,2024-07-09 16:56:19,15.08834624,0.0001373,53.2163,93.21,98.4537,261.6611,-5.7652e-05,-1.205e-05,0.0,0 STARLINK-4676,1 53598U 22104L   24191.70578090 -.00001205  00000-0 -57652-4 0  9991,2 53598  53.2163  93.2100 0001373  98.4537 261.6611 15.08834624103140,6917.897,95.438,540.712,538.812,0.0
53598.0,STARLINK-4676,PAYLOAD,2024-07-09 21:42:29,15.08828548,0.0001394,53.2164,92.3168,95.9656,264.1495,-0.00016188,-2.862e-05,0.0,0 STARLINK-4676,1 53598U 22104L   24191.90450523 -.00002862  00000-0 -16188-3 0  9991,2 53598  53.2164  92.3168 0001394  95.9656 264.1495 15.08828548103867,6917.915,95.438,540.745,538.816,0.0
53598.0,STARLINK-4676,PAYLOAD,2024-07-10 10:25:34,15.08842335,0.0001666,53.2169,89.9351,83.6268,276.4914,3.1952e-05,2.21e-06,0.0,0 STARLINK-4676,1 53598U 22104L   24192.43442294  .00000221  00000-0  31952-4 0  9998,2 53598  53.2169  89.9351 0001666  83.6268 276.4914 15.08842335103944,6917.873,95.437,540.891,538.586,0.0
53598.0,STARLINK-4676,PAYLOAD,2024-07-10 21:33:16,15.08845256,0.0001643,53.2168,87.8541,84.5796,275.5384,0.00027168,4.039e-05,0.0,0 STARLINK-4676,1 53598U 22104L   24192.89810324  .00004039  00000-0  27168-3 0  9995,2 53598  53.2168  87.8541 0001643  84.5796 275.5384 15.08845256104017,6917.864,95.437,540.866,538.593,0.0
53598.0,STARLINK-4676,PAYLOAD,2024-07-11 02:19:25,15.08855758,0.0001564,53.2153,86.9613,83.9637,276.1534,0.00057608,8.896e-05,0.0,0 STARLINK-4676,1 53598U 22104L   24193.09682080  .00008896  00000-0  57608-3 0  9991,2 53598  53.2153  86.9613 0001564  83.9637 276.1534 15.08855758103358,6917.832,95.437,540.779,538.615,0.0
53598.0,STARLINK-4676,PAYLOAD,2024-07-12 10:07:07,15.08843676,0.0001377,53.2149,81.0106,104.2218,255.8928,6.1571e-05,6.92e-06,0.0,0 STARLINK-4676,1 53598U 22104L   24194.42161913  .00000692  00000-0  61571-4 0  9997,2 53598  53.2149  81.0106 0001377 104.2218 255.8928 15.08843676103559,6917.869,95.437,540.687,538.782,0.0
53598.0,STARLINK-4676,PAYLOAD,2024-07-12 22:50:13,15.08844946,0.0001582,53.2165,78.6321,106.707,253.4096,1.3838e-07,-2.86e-06,0.0,0 STARLINK-4676,1 53598U 22104L   24194.95153950 -.00000286  00000-0  13838-6 0  9992,2 53598  53.2165  78.6321 0001582 106.7070 253.4096 15.08844946104326,6917.865,95.437,540.825,538.636,0.0
53598.0,STARLINK-4676,PAYLOAD,2024-07-13 02:00:59,15.08846686,0.0001518,53.2158,78.0382,94.4065,265.71,2.1884e-05,6e-07,0.0,0 STARLINK-4676,1 53598U 22104L   24195.08401873  .00000060  00000-0  21884-4 0  9994,2 53598  53.2158  78.0382 0001518  94.4065 265.7100 15.08846686104342,6917.86,95.437,540.775,538.675,0.0
53598.0,STARLINK-4676,PAYLOAD,2024-07-13 21:05:37,15.0884064,0.000171,53.2178,74.4676,102.5293,257.589,0.0001249,1.7e-05,0.0,0 STARLINK-4676,1 53598U 22104L   24195.87890183  .00001700  00000-0  12490-3 0  9991,2 53598  53.2178  74.4676 0001710 102.5293 257.5890 15.08840640103773,6917.878,95.438,540.926,538.56,0.0
53598.0,STARLINK-4676,PAYLOAD,2024-07-13 22:41:00,15.08843399,0.0001328,53.2175,74.1723,100.815,259.2992,0.00012377,1.683e-05,0.0,0 STARLINK-4676,1 53598U 22104L   24195.94513926  .00001683  00000-0  12377-3 0  9990,2 53598  53.2175  74.1723 0001328 100.8150 259.2992 15.08843399104472,6917.87,95.437,540.654,538.816,0.0
53598.0,STARLINK-4676,PAYLOAD,2024-07-14 22:31:47,15.08842338,0.0001411,53.2168,69.7129,100.5672,259.5479,0.0001694,2.409e-05,0.0,0 STARLINK-4676,1 53598U 22104L   24196.93874104  .00002409  00000-0  16940-3 0  9995,2 53598  53.2168  69.7129 0001411 100.5672 259.5479 15.08842338104625,6917.873,95.437,540.714,538.762,0.0
53598.0,STARLINK-4676,PAYLOAD,2024-07-15 08:04:05,15.08844338,0.0001346,53.2148,67.9292,92.7388,267.3758,0.00013589,1.876e-05,0.0,0 STARLINK-4676,1 53598U 22104L   24197.33617979  .00001876  00000-0  13589-3 0  9998,2 53598  53.2148  67.9292 0001346  92.7388 267.3758 15.08844338104682,6917.867,95.437,540.663,538.801,0.0
53598.0,STARLINK-4676,PAYLOAD,2024-07-15 20:47:11,15.08833046,0.0001694,53.2174,65.5567,110.9227,249.1947,-9.1076e-05,-1.737e-05,0.0,0 STARLINK-4676,1 53598U 22104L   24197.86610691 -.00001737  00000-0 -91076-4 0  9996,2 53598  53.2174  65.5567 0001694 110.9227 249.1947 15.08833046104076,6917.902,95.438,540.939,538.595,0.0
53598.0,STARLINK-4676,PAYLOAD,2024-07-15 22:22:35,15.08833844,0.0001453,53.2171,65.2565,104.4185,255.6968,-4.419e-06,-3.58e-06,0.0,0 STARLINK-4676,1 53598U 22104L   24197.93235070 -.00000358  00000-0 -44190-5 0  9992,2 53598  53.2171  65.2565 0001453 104.4185 255.6968 15.08833844104770,6917.899,95.438,540.769,538.759,0.0
53598.0,STARLINK-4676,PAYLOAD,2024-07-16 20:37:58,15.08845328,0.0001502,53.2169,61.0925,100.8035,259.3126,0.0001255,1.71e-05,0.0,0 STARLINK-4676,1 53598U 22104L   24198.85970226  .00001710  00000-0  12550-3 0  9997,2 53598  53.2169  61.0925 0001502 100.8035 259.3126 15.08845328104227,6917.864,95.437,540.768,538.69,0.0
53598.0,STARLINK-4676,PAYLOAD,2024-07-16 22:13:21,15.08846435,0.0001473,53.2173,60.7954,98.7577,261.3582,0.00015565,2.19e-05,0.0,0 STARLINK-4676,1 53598U 22104L   24198.92594191  .00002190  00000-0  15565-3 0  9990,2 53598  53.2173  60.7954 0001473  98.7577 261.3582 15.08846435104929,6917.861,95.437,540.745,538.707,0.0
53598.0,STARLINK-4676,PAYLOAD,2024-07-17 07:45:40,15.0883745,7.88e-05,53.2153,59.0101,111.205,248.9027,3.9273e-06,-2.25e-06,0.0,0 STARLINK-4676,1 53598U 22104L   24199.32338281 -.00000225  00000-0  39273-5 0  9993,2 53598  53.2153  59.0101 0000788 111.2050 248.9027 15.08837450104985,6917.888,95.438,540.298,539.208,0.0
53598.0,STARLINK-4676,PAYLOAD,2024-07-17 20:28:46,15.08832695,0.0001546,53.2171,56.6307,92.3117,267.8052,-4.336e-05,-9.78e-06,0.0,0 STARLINK-4676,1 53598U 22104L   24199.85331106 -.00000978  00000-0 -43360-4 0  9997,2 53598  53.2171  56.6307 0001546  92.3117 267.8052 15.08832695104379,6917.903,95.438,540.837,538.698,0.0
53598.0,STARLINK-4676,PAYLOAD,2024-07-17 22:04:09,15.08837346,0.000154,53.2174,56.3325,91.4055,268.7114,5.811e-05,6.37e-06,0.0,0 STARLINK-4676,1 53598U 22104L   24199.91955098  .00000637  00000-0  58110-4 0  9995,2 53598  53.2174  56.3325 0001540  91.4055 268.7114 15.08837346105079,6917.889,95.438,540.819,538.688,0.0
53598.0,STARLINK-4676,PAYLOAD,2024-07-18 07:36:28,15.08837949,0.000154,53.2171,54.5473,86.6213,273.4956,8.0049e-05,9.86e-06,0.0,0 STARLINK-4676,1 53598U 22104L   24200.31699088  .00000986  00000-0  80049-4 0  9999,2 53598  53.2171  54.5473 0001540  86.6213 273.4956 15.08837949105135,6917.887,95.438,540.817,538.686,0.0
53598.0,STARLINK-4676,PAYLOAD,2024-07-18 20:19:33,15.0884154,0.0001338,53.2166,52.1695,92.093,268.0216,0.00011731,1.58e-05,0.0,0 STARLINK-4676,1 53598U 22104L   24200.84691059  .00001580  00000-0  11731-3 0  9999,2 53598  53.2166  52.1695 0001338  92.0930 268.0216 15.08841540104524,6917.876,95.437,540.666,538.815,0.0
53598.0,STARLINK-4676,PAYLOAD,2024-07-18 21:54:56,15.08846029,0.0001362,53.2166,51.8713,86.4225,273.6923,0.00021531,3.141e-05,0.0,0 STARLINK-4676,1 53598U 22104L   24200.91314905  .00003141  00000-0  21531-3 0  9993,2 53598  53.2166  51.8713 0001362  86.4225 273.6923 15.08846029105224,6917.862,95.437,540.669,538.785,0.0
53598.0,STARLINK-4676,PAYLOAD,2024-07-19 07:27:15,15.08839226,0.0001229,53.2163,50.0823,117.6428,242.4689,0.00021517,3.138e-05,0.0,0 STARLINK-4676,1 53598U 22104L   24201.31059087  .00003138  00000-0  21517-3 0  9995,2 53598  53.2163  50.0823 0001229 117.6428 242.4689 15.08839226105288,6917.883,95.438,540.598,538.898,0.0
53598.0,STARLINK-4676,PAYLOAD,2024-07-19 20:10:18,15.08878422,0.0001293,53.2163,47.7067,96.5267,263.5873,0.00076572,0.00011932,0.0,0 STARLINK-4676,1 53598U 22104L   24201.84049185  .00011932  00000-0  76572-3 0  9993,2 53598  53.2163  47.7067 0001293  96.5267 263.5873 15.08878422104670,6917.763,95.435,540.522,538.733,0.0
53598.0,STARLINK-4676,PAYLOAD,2024-07-20 07:18:00,15.08847181,0.0001438,53.2171,45.6261,99.9638,260.1517,7.8687e-06,-1.63e-06,0.0,0 STARLINK-4676,1 53598U 22104L   24202.30417708 -.00000163  00000-0  78687-5 0  9991,2 53598  53.2171  45.6261 0001438  99.9638 260.1517 15.08847181104746,6917.858,95.437,540.718,538.729,0.0
53598.0,STARLINK-4676,PAYLOAD,2024-07-20 20:01:06,15.08829681,0.0001327,53.2166,43.2466,112.0842,248.0291,-0.00037246,-6.209e-05,0.0,0 STARLINK-4676,1 53598U 22104L   24202.83410421 -.00006209  00000-0 -37246-3 0  9996,2 53598  53.2166  43.2466 0001327 112.0842 248.0291 15.08829681104820,6917.912,95.438,540.695,538.859,0.0
53598.0,STARLINK-4676,PAYLOAD,2024-07-21 19:51:54,15.08838716,0.0001317,53.2168,38.7865,120.1124,239.9999,0.00082723,0.00012901,0.0,0 STARLINK-4676,1 53598U 22104L   24203.82771135  .00012901  00000-0  82723-3 0  9992,2 53598  53.2168  38.7865 0001317 120.1124 239.9999 15.08838716104975,6917.884,95.438,540.66,538.838,0.0
53598.0,STARLINK-4676,PAYLOAD,2024-07-22 13:21:09,15.08840924,0.0001605,53.2177,35.5151,124.2927,235.8218,0.00047169,7.227e-05,0.0,0 STARLINK-4676,1 53598U 22104L   24204.55635438  .00007227  00000-0  47169-3 0  9998,2 53598  53.2177  35.5151 0001605 124.2927 235.8218 15.08840924105080,6917.878,95.437,540.853,538.632,0.0
53598.0,STARLINK-4676,PAYLOAD,2024-07-23 11:36:33,15.08833615,0.000152,53.218,31.3551,121.3725,238.7416,0.0008209,0.00012798,0.0,0 STARLINK-4676,1 53598U 22104L   24205.48372057  .00012798  00000-0  82090-3 0  9997,2 53598  53.2180  31.3551 0001520 121.3725 238.7416 15.08833615105229,6917.9,95.438,540.816,538.713,0.0
53598.0,STARLINK-4676,PAYLOAD,2024-07-24 20:59:39,15.08840422,0.0001171,53.2167,25.1089,102.9426,257.1697,0.00012177,1.651e-05,0.0,0 STARLINK-4676,1 53598U 22104L   24206.87475724  .00001651  00000-0  12177-3 0  9991,2 53598  53.2167  25.1089 0001171 102.9426 257.1697 15.08840422105439,6917.879,95.438,540.554,538.934,0.0
